IRIDIUM 36              
1 24967U 97056C   24225.73983537  .00001903  00000+0  63647-3 0  9996
2 24967  86.3973 302.5541 0002051  91.9386 268.2046 14.36949189407913
IRIDIUM 39              
1 25042U 97069D   24225.74129963  .00005154  00000+0  13760-2 0  9993
2 25042  86.3961 343.3474 0016195 253.9143 106.0278 14.48166982404309
IRIDIUM 38              
1 25043U 97069E   24225.93855478  .00004140  00000+0  13793-2 0  9992
2 25043  86.3997   2.8138 0003401  64.4847 295.6702 14.37410105401665
IRIDIUM 42              
1 25077U 97077A   24225.91942898  .00002751  00000+0  94659-3 0  9996
2 25077  86.3995   8.6074 0002614  81.7094 278.4399 14.35694635396950
IRIDIUM 44              
1 25078U 97077B   24225.79798780  .00002371  00000+0  75412-3 0  9996
2 25078  86.3999 351.4203 0001657  35.7653 324.3656 14.39541392399320
IRIDIUM 45              
1 25104U 97082A   24225.96266567  .00081192  00000+0  42668-2 0  9998
2 25104  86.3751 195.5677 0154455  33.9399 327.1600 15.05574932405395
IRIDIUM 24              
1 25105U 97082B   24225.95498146  .00003954  00000+0  12152-2 0  9993
2 25105  86.3919 210.8419 0012396  27.0727 333.1116 14.41336282398802
IRIDIUM 51              
1 25262U 98018A   24225.94005837  .00091115  00000+0  39160-2 0  9991
2 25262  86.3962 205.2056 0135130 334.5394  24.9227 15.14348744399993
